NORAD_CAT_ID,OBJECT_NAME,OBJECT_TYPE,EPOCH,MEAN_MOTION,ECCENTRICITY,INCLINATION,RA_OF_ASC_NODE,ARG_OF_PERICENTER,MEAN_ANOMALY,BSTAR,MEAN_MOTION_DOT,MEAN_MOTION_DDOT,TLE_LINE0,TLE_LINE1,TLE_LINE2,SEMIMAJOR_AXIS,PERIOD,APOGEE,PERIGEE,DECAYED
49761.0,STARLINK-3203,PAYLOAD,2023-12-26 09:41:29,15.08835756,0.0001657,53.2167,149.6928,89.1515,270.9667,2.6831e-05,1.39e-06,0.0,0 STARLINK-3203,1 49761U 21115AP  23360.40381900  .00000139  00000-0  26831-4 0  9993,2 49761  53.2167 149.6928 0001657  89.1515 270.9667 15.08835756115361,6917.893,95.438,540.905,538.612,0.0
49761.0,STARLINK-3203,PAYLOAD,2023-12-26 14:27:39,15.08833733,0.0001383,53.2172,148.8077,80.5963,279.5185,1.8738e-05,1e-07,0.0,0 STARLINK-3203,1 49761U 21115AP  23360.60254040  .00000010  00000-0  18738-4 0  9994,2 49761  53.2172 148.8077 0001383  80.5963 279.5185 15.08833733114284,6917.9,95.438,540.721,538.808,0.0
49761.0,STARLINK-3203,PAYLOAD,2023-12-26 17:38:25,15.0883551,0.00014,53.2172,148.2127,78.3521,281.7628,3.4848e-05,2.67e-06,0.0,0 STARLINK-3203,1 49761U 21115AP  23360.73501956  .00000267  00000-0  34848-4 0  9993,2 49761  53.2172 148.2127 0001400  78.3521 281.7628 15.08835510114304,6917.894,95.438,540.728,538.791,0.0
49761.0,STARLINK-3203,PAYLOAD,2023-12-27 14:18:26,15.08841703,0.00013,53.2165,144.3469,77.4015,282.7122,4.2621e-05,3.91e-06,0.0,0 STARLINK-3203,1 49761U 21115AP  23361.59613788  .00000391  00000-0  42621-4 0  9991,2 49761  53.2165 144.3469 0001300  77.4015 282.7122 15.08841703114434,6917.875,95.437,540.64,538.841,0.0
49761.0,STARLINK-3203,PAYLOAD,2023-12-27 17:29:12,15.08845451,0.0001382,53.2168,143.7525,75.5039,284.6107,8.1627e-05,1.012e-05,0.0,0 STARLINK-3203,1 49761U 21115AP  23361.72861518  .00001012  00000-0  81627-4 0  9992,2 49761  53.2168 143.7525 0001382  75.5039 284.6107 15.08845451115561,6917.864,95.437,540.685,538.773,0.0
49761.0,STARLINK-3203,PAYLOAD,2023-12-28 14:09:13,15.08837915,0.0001481,53.217,139.8859,67.749,292.3659,8.5098e-05,1.067e-05,0.0,0 STARLINK-3203,1 49761U 21115AP  23362.58974081  .00001067  00000-0  85098-4 0  9993,2 49761  53.2170 139.8859 0001481  67.7490 292.3659 15.08837915114589,6917.887,95.438,540.776,538.727,0.0
49761.0,STARLINK-3203,PAYLOAD,2023-12-28 18:55:22,15.08843515,0.0001397,53.2177,138.99,80.5714,279.5436,7.4366e-05,8.96e-06,0.0,0 STARLINK-3203,1 49761U 21115AP  23362.78845597  .00000896  00000-0  74366-4 0  9999,2 49761  53.2177 138.9900 0001397  80.5714 279.5436 15.08843515115721,6917.87,95.437,540.701,538.768,0.0
49761.0,STARLINK-3203,PAYLOAD,2023-12-29 14:00:00,15.08843822,0.0001217,53.2168,135.4182,106.2505,253.8621,-3.6642e-05,-8.71e-06,0.0,0 STARLINK-3203,1 49761U 21115AP  23363.58333844 -.00000871  00000-0 -36642-4 0  9995,2 49761  53.2168 135.4182 0001217 106.2505 253.8621 15.08843822114732,6917.869,95.437,540.576,538.892,0.0
49761.0,STARLINK-3203,PAYLOAD,2023-12-29 15:35:23,15.08843891,0.0001162,53.2167,135.1215,105.0911,255.021,-2.842e-05,-7.4e-06,0.0,0 STARLINK-3203,1 49761U 21115AP  23363.64957787 -.00000740  00000-0 -28420-4 0  9990,2 49761  53.2167 135.1215 0001162 105.0911 255.0210 15.08843891115850,6917.868,95.437,540.537,538.93,0.0
49761.0,STARLINK-3203,PAYLOAD,2023-12-30 13:50:47,15.08845007,0.0001363,53.2173,130.9606,97.2494,262.8653,7.7343e-05,9.43e-06,0.0,0 STARLINK-3203,1 49761U 21115AP  23364.57693449  .00000943  00000-0  77343-4 0  9996,2 49761  53.2173 130.9606 0001363  97.2494 262.8653 15.08845007114885,6917.865,95.437,540.673,538.787,0.0
49761.0,STARLINK-3203,PAYLOAD,2023-12-30 15:26:10,15.08845621,0.0001358,53.2173,130.663,96.7287,263.3859,8.2461e-05,1.025e-05,0.0,0 STARLINK-3203,1 49761U 21115AP  23364.64317378  .00001025  00000-0  82461-4 0  9997,2 49761  53.2173 130.6630 0001358  96.7287 263.3859 15.08845621114894,6917.863,95.437,540.668,538.789,0.0
49761.0,STARLINK-3203,PAYLOAD,2023-12-31 12:06:11,15.08834968,0.000144,53.2166,126.8031,110.2785,249.8362,9.8523e-06,-1.31e-06,0.0,0 STARLINK-3203,1 49761U 21115AP  23365.50430453 -.00000131  00000-0  98523-5 0  9998,2 49761  53.2166 126.8031 0001440 110.2785 249.8362 15.08834968116134,6917.896,95.438,540.757,538.765,0.0
49761.0,STARLINK-3203,PAYLOAD,2023-12-31 13:41:35,15.08835359,0.0001436,53.2166,126.5062,108.5523,251.5625,1.3009e-05,-8.1e-07,0.0,0 STARLINK-3203,1 49761U 21115AP  23365.57054431 -.00000081  00000-0  13009-4 0  9992,2 49761  53.2166 126.5062 0001436 108.5523 251.5625 15.08835359115035,6917.895,95.438,540.753,538.766,0.0
49761.0,STARLINK-3203,PAYLOAD,2024-01-01 13:32:21,15.08839382,0.0001487,53.2172,122.0457,105.6193,254.4963,3.674e-05,2.97e-06,0.0,0 STARLINK-3203,1 49761U 21115AP  24001.56414305  .00000297  00000-0  36740-4 0  9994,2 49761  53.2172 122.0457 0001487 105.6193 254.4963 15.08839382115181,6917.882,95.438,540.776,538.719,0.0
49761.0,STARLINK-3203,PAYLOAD,2024-01-01 15:07:44,15.08842128,0.0001332,53.2169,121.7442,101.4091,258.705,3.3097e-05,2.39e-06,0.0,0 STARLINK-3203,1 49761U 21115AP  24001.63038131  .00000239  00000-0  33097-4 0  9999,2 49761  53.2169 121.7442 0001332 101.4091 258.7050 15.08842128116308,6917.874,95.437,540.66,538.817,0.0
49761.0,STARLINK-3203,PAYLOAD,2024-01-02 11:47:46,15.08832713,0.0001395,53.2169,117.8795,104.9227,255.192,4.3578e-05,4.06e-06,0.0,0 STARLINK-3203,1 49761U 21115AP  24002.49151009  .00000406  00000-0  43578-4 0  9995,2 49761  53.2169 117.8795 0001395 104.9227 255.1920 15.08832713116433,6917.903,95.438,540.733,538.803,0.0
49761.0,STARLINK-3203,PAYLOAD,2024-01-02 13:23:09,15.08834606,0.0001444,53.2179,117.5835,81.062,279.0535,6.2901e-05,7.13e-06,0.0,0 STARLINK-3203,1 49761U 21115AP  24002.55775021  .00000713  00000-0  62901-4 0  9990,2 49761  53.2179 117.5835 0001444  81.0620 279.0535 15.08834606115331,6917.897,95.438,540.761,538.763,0.0
49761.0,STARLINK-3203,PAYLOAD,2024-01-02 16:33:55,15.0883776,0.0001462,53.2181,116.9872,82.3197,277.7961,8.4952e-05,1.064e-05,0.0,0 STARLINK-3203,1 49761U 21115AP  24002.69022791  .00001064  00000-0  84952-4 0  9994,2 49761  53.2181 116.9872 0001462  82.3197 277.7961 15.08837760115355,6917.887,95.438,540.764,538.741,0.0
49761.0,STARLINK-3203,PAYLOAD,2024-01-03 13:13:56,15.08839153,0.0001387,53.2168,113.1214,94.7971,265.318,3.9805e-05,3.46e-06,0.0,0 STARLINK-3203,1 49761U 21115AP  24003.55134898  .00000346  00000-0  39805-4 0  9991,2 49761  53.2168 113.1214 0001387  94.7971 265.3180 15.08839153115480,6917.883,95.438,540.707,538.788,0.0
49761.0,STARLINK-3203,PAYLOAD,2024-01-03 14:49:19,15.08840217,0.0001378,53.2168,112.8243,92.3051,267.8099,4.5167e-05,4.31e-06,0.0,0 STARLINK-3203,1 49761U 21115AP  24003.61758830  .00000431  00000-0  45167-4 0  9999,2 49761  53.2168 112.8243 0001378  92.3051 267.8099 15.08840217116605,6917.88,95.438,540.698,538.791,0.0
49761.0,STARLINK-3203,PAYLOAD,2024-01-04 13:04:43,15.08848551,0.000141,53.2169,108.6621,84.7373,275.378,9.0636e-05,1.155e-05,0.0,0 STARLINK-3203,1 49761U 21115AP  24004.54494253  .00001155  00000-0  90636-4 0  9993,2 49761  53.2169 108.6621 0001410  84.7373 275.3780 15.08848551115630,6917.854,95.437,540.695,538.744,0.0
49761.0,STARLINK-3203,PAYLOAD,2024-01-04 16:15:28,15.08851862,0.0001425,53.2168,108.0669,87.1352,272.9803,0.00011705,1.576e-05,0.0,0 STARLINK-3203,1 49761U 21115AP  24004.67741880  .00001576  00000-0  11705-3 0  9994,2 49761  53.2168 108.0669 0001425  87.1352 272.9803 15.08851862116768,6917.844,95.437,540.695,538.723,0.0
49761.0,STARLINK-3203,PAYLOAD,2024-01-05 03:23:12,15.08831405,0.0001429,53.217,105.9857,94.6948,265.4207,0.00014867,2.078e-05,0.0,0 STARLINK-3203,1 49761U 21115AP  24005.14111117  .00002078  00000-0  14867-3 0  9991,2 49761  53.2170 105.9857 0001429  94.6948 265.4207 15.08831405116838,6917.907,95.438,540.76,538.783,0.0
49761.0,STARLINK-3203,PAYLOAD,2024-01-05 12:55:30,15.08837709,0.0001333,53.217,104.2014,92.1022,268.0123,6.7355e-05,7.84e-06,0.0,0 STARLINK-3203,1 49761U 21115AP  24005.53854950  .00000784  00000-0  67355-4 0  9996,2 49761  53.2170 104.2014 0001333  92.1022 268.0123 15.08837709115787,6917.887,95.438,540.675,538.83,0.0
49761.0,STARLINK-3203,PAYLOAD,2024-01-06 12:46:17,15.08843317,0.0001325,53.2168,99.7407,100.3634,259.7508,2.4346e-05,1e-06,0.0,0 STARLINK-3203,1 49761U 21115AP  24006.53214634  .00000100  00000-0  24346-4 0  9991,2 49761  53.2168  99.7407 0001325 100.3634 259.7508 15.08843317117047,6917.87,95.437,540.652,538.819,0.0
49761.0,STARLINK-3203,PAYLOAD,2024-01-07 04:40:09,15.08831624,0.0001294,53.2166,96.7673,98.6868,261.4271,3.9658e-05,3.43e-06,0.0,0 STARLINK-3203,1 49761U 21115AP  24007.19455283  .00000343  00000-0  39658-4 0  9992,2 49761  53.2166  96.7673 0001294  98.6868 261.4271 15.08831624117146,6917.906,95.438,540.666,538.876,0.0
49761.0,STARLINK-3203,PAYLOAD,2024-01-07 12:37:04,15.08837892,0.0001303,53.2166,95.2805,99.5195,260.5945,8.7799e-05,1.11e-05,0.0,0 STARLINK-3203,1 49761U 21115AP  24007.52574878  .00001110  00000-0  87799-4 0  9993,2 49761  53.2166  95.2805 0001303  99.5195 260.5945 15.08837892116084,6917.887,95.438,540.653,538.85,0.0
49761.0,STARLINK-3203,PAYLOAD,2024-01-08 12:27:51,15.08840653,0.0001305,53.2166,90.8205,93.8799,266.2342,8.4669e-05,1.06e-05,0.0,0 STARLINK-3203,1 49761U 21115AP  24008.51934882  .00001060  00000-0  84669-4 0  9995,2 49761  53.2166  90.8205 0001305  93.8799 266.2342 15.08840653116238,6917.878,95.438,540.646,538.841,0.0
49761.0,STARLINK-3203,PAYLOAD,2024-01-09 04:21:43,15.08834352,0.000132,53.2165,87.8468,94.2129,265.9014,5.1884e-05,5.38e-06,0.0,0 STARLINK-3203,1 49761U 21115AP  24009.18175446  .00000538  00000-0  51884-4 0  9994,2 49761  53.2165  87.8468 0001320  94.2129 265.9014 15.08834352117448,6917.898,95.438,540.676,538.849,0.0
49761.0,STARLINK-3203,PAYLOAD,2024-01-09 10:43:15,15.0884017,0.0001326,53.2165,86.6572,95.3888,264.7256,9.6922e-05,1.255e-05,0.0,0 STARLINK-3203,1 49761U 21115AP  24009.44671000  .00001255  00000-0  96922-4 0  9999,2 49761  53.2165  86.6572 0001326  95.3888 264.7256 15.08840170116372,6917.88,95.438,540.662,538.828,0.0
